COMMENT,ORIGINATOR,NORAD_CAT_ID,OBJECT_NAME,OBJECT_TYPE,CLASSIFICATION_TYPE,INTLDES,EPOCH,EPOCH_MICROSECONDS,MEAN_MOTION,ECCENTRICITY,INCLINATION,RA_OF_ASC_NODE,ARG_OF_PERICENTER,MEAN_ANOMALY,EPHEMERIS_TYPE,ELEMENT_SET_NO,REV_AT_EPOCH,BSTAR,MEAN_MOTION_DOT,MEAN_MOTION_DDOT,FILE,TLE_LINE0,TLE_LINE1,TLE_LINE2,OBJECT_ID,OBJECT_NUMBER,SEMIMAJOR_AXIS,PERIOD,APOGEE,PERIGEE,DECAYED
"GENERATED VIA SPACETRACK.ORG API","18 SPCS","55099","SPACEBEE-156","PAYLOAD","U","23001CU","2023-10-29 02:46:43","322016","15.2622479","0.0012139","97.4598","1.454","250.2002","109.7928","0","999","4548","0.0014578","0.00037896","0","4059417","0 SPACEBEE-156","1 55099U 23001CU  23302.11577919  .00037896  00000-0  14578-2 0  9994","2 55099  97.4598   1.4540 0012139 250.2002 109.7928 15.26224790 45488","2023-001CU","55099","6865.247","94.350","495.446","478.778","0"
"GENERATED VIA SPACETRACK.ORG API","18 SPCS","55099","SPACEBEE-156","PAYLOAD","U","23001CU","2023-10-29 21:39:37","948320","15.26284364","0.0012078","97.4592","2.2393","247.1082","112.8882","0","999","4560","0.0014313","0.00037268","0","4059994","0 SPACEBEE-156","1 55099U 23001CU  23302.90252255  .00037268  00000-0  14313-2 0  9994","2 55099  97.4592   2.2393 0012078 247.1082 112.8882 15.26284364 45603","2023-001CU","55099","6865.068","94.347","495.225","478.642","0"
"GENERATED VIA SPACETRACK.ORG API","18 SPCS","55099","SPACEBEE-156","PAYLOAD","U","23001CU","2023-10-30 03:57:15","543072","15.26305675","0.0012107","97.4591","2.5009","246.1385","113.8585","0","999","4564","0.0014403","0.00037529","0","4060613","0 SPACEBEE-156","1 55099U 23001CU  23303.16476323  .00037529  00000-0  14403-2 0  9997","2 55099  97.4591   2.5009 0012107 246.1385 113.8585 15.26305675 45641","2023-001CU","55099","6865.005","94.345","495.181","478.558","0"
"GENERATED VIA SPACETRACK.ORG API","18 SPCS","55099","SPACEBEE-156","PAYLOAD","U","23001CU","2023-10-30 21:15:42","690528","15.26350523","0.0012124","97.4588","3.2205","243.4863","116.5133","0","999","4575","0.0012826","0.00033439","0","4061878","0 SPACEBEE-156","1 55099U 23001CU  23303.88591077  .00033439  00000-0  12826-2 0  9993","2 55099  97.4588   3.2205 0012124 243.4863 116.5133 15.26350523 45756","2023-001CU","55099","6864.870","94.343","495.058","478.412","0"
"GENERATED VIA SPACETRACK.ORG API","18 SPCS","55099","SPACEBEE-156","PAYLOAD","U","23001CU","2023-10-31 03:33:19","402272","15.26367695","0.001213","97.4586","3.4824","242.4655","117.5351","0","999","4579","0.0013225","0.00034504","0","4062274","0 SPACEBEE-156","1 55099U 23001CU  23304.14814123  .00034504  00000-0  13225-2 0  9991","2 55099  97.4586   3.4824 0012130 242.4655 117.5351 15.26367695 45793","2023-001CU","55099","6864.819","94.342","495.011","478.357","0"
"GENERATED VIA SPACETRACK.ORG API","18 SPCS","55099","SPACEBEE-156","PAYLOAD","U","23001CU","2023-10-31 14:34:08","72832","15.26391839","0.0012167","97.4583","3.9403","240.8087","119.1935","0","999","4586","0.0011142","0.00029059","0","4063043","0 SPACEBEE-156","1 55099U 23001CU  23304.60703788  .00029059  00000-0  11142-2 0  9991","2 55099  97.4583   3.9403 0012167 240.8087 119.1935 15.26391839 45860","2023-001CU","55099","6864.746","94.340","494.964","478.259","0"
"GENERATED VIA SPACETRACK.ORG API","18 SPCS","55099","SPACEBEE-156","PAYLOAD","U","23001CU","2023-10-31 17:42:56","133216","15.26399175","0.0012204","97.4583","4.0713","240.2629","119.7395","0","999","4588","0.0011069","0.00028874","0","4063660","0 SPACEBEE-156","1 55099U 23001CU  23304.73814969  .00028874  00000-0  11069-2 0  9991","2 55099  97.4583   4.0713 0012204 240.2629 119.7395 15.26399175 45883","2023-001CU","55099","6864.724","94.340","494.967","478.211","0"
"GENERATED VIA SPACETRACK.ORG API","18 SPCS","55099","SPACEBEE-156","PAYLOAD","U","23001CU","2023-11-01 03:09:19","944576","15.26424648","0.0012244","97.4581","4.4639","238.8738","121.13","0","999","4594","0.0011961","0.00031241","0","4064099","0 SPACEBEE-156","1 55099U 23001CU  23305.13148084  .00031241  00000-0  11961-2 0  9997","2 55099  97.4581   4.4639 0012244 238.8738 121.1300 15.26424648 45944","2023-001CU","55099","6864.648","94.338","494.918","478.108","0"
"GENERATED VIA SPACETRACK.ORG API","18 SPCS","55099","SPACEBEE-156","PAYLOAD","U","23001CU","2023-11-01 03:09:19","944576","15.26424648","0.0012244","97.4581","4.4639","238.8738","121.13","0","999","4594","0.0011961","0.00031241","0","4064888","0 SPACEBEE-156","1 55099U 23001CU  23305.13148084  .00031241  00000-0  11961-2 0  9997","2 55099  97.4581   4.4639 0012244 238.8738 121.1300 15.26424648 45944","2023-001CU","55099","6864.648","94.338","494.918","478.108","0"
"GENERATED VIA SPACETRACK.ORG API","18 SPCS","55099","SPACEBEE-156","PAYLOAD","U","23001CU","2023-11-01 17:18:54","633888","15.26461204","0.0012263","97.4581","5.0529","236.5856","123.421","0","999","4603","0.0011403","0.00029807","0","4065398","0 SPACEBEE-156","1 55099U 23001CU  23305.72146567  .00029807  00000-0  11403-2 0  9992","2 55099  97.4581   5.0529 0012263 236.5856 123.4210 15.26461204 46031","2023-001CU","55099","6864.538","94.336","494.821","477.985","0"
"GENERATED VIA SPACETRACK.ORG API","18 SPCS","55099","SPACEBEE-156","PAYLOAD","U","23001CU","2023-11-02 02:45:17","26560","15.26488431","0.0012252","97.458","5.4455","235.0876","124.9211","0","999","4609","0.0011961","0.00031301","0","4066590","0 SPACEBEE-156","1 55099U 23001CU  23306.11478040  .00031301  00000-0  11961-2 0  9991","2 55099  97.4580   5.4455 0012252 235.0876 124.9211 15.26488431 46090","2023-001CU","55099","6864.457","94.334","494.732","477.911","0"
"GENERATED VIA SPACETRACK.ORG API","18 SPCS","55099","SPACEBEE-156","PAYLOAD","U","23001CU","2023-11-02 16:54:49","545504","15.26527895","0.0012244","97.4581","6.0344","232.6196","127.3928","0","999","4618","0.0011975","0.00031376","0","4066933","0 SPACEBEE-156","1 55099U 23001CU  23306.70474011  .00031376  00000-0  11975-2 0  9997","2 55099  97.4581   6.0344 0012244 232.6196 127.3928 15.26527895 46184","2023-001CU","55099","6864.338","94.332","494.608","477.799","0"
"GENERATED VIA SPACETRACK.ORG API","18 SPCS","55099","SPACEBEE-156","PAYLOAD","U","23001CU","2023-11-02 16:54:49","545504","15.26527895","0.0012244","97.4581","6.0344","232.6196","127.3928","0","999","4618","0.0011975","0.00031376","0","4067000","0 SPACEBEE-156","1 55099U 23001CU  23306.70474011  .00031376  00000-0  11975-2 0  9997","2 55099  97.4581   6.0344 0012244 232.6196 127.3928 15.26527895 46184","2023-001CU","55099","6864.338","94.332","494.608","477.799","0"
"GENERATED VIA SPACETRACK.ORG API","18 SPCS","55099","SPACEBEE-156","PAYLOAD","U","23001CU","2023-11-03 03:55:33","902976","15.26559992","0.0012238","97.4579","6.4924","230.8233","129.1919","0","999","4625","0.0012556","0.0003294","0","4068165","0 SPACEBEE-156","1 55099U 23001CU  23307.16358684  .00032940  00000-0  12556-2 0  9999","2 55099  97.4579   6.4924 0012238 230.8233 129.1919 15.26559992 46255","2023-001CU","55099","6864.242","94.330","494.508","477.707","0"
"GENERATED VIA SPACETRACK.ORG API","18 SPCS","55099","SPACEBEE-156","PAYLOAD","U","23001CU","2023-11-03 21:13:50","580480","15.26607008","0.0012306","97.4581","7.2119","228.0683","131.9507","0","999","4636","0.0012245","0.00032166","0","4068824","0 SPACEBEE-156","1 55099U 23001CU  23307.88461320  .00032166  00000-0  12245-2 0  9995","2 55099  97.4581   7.2119 0012306 228.0683 131.9507 15.26607008 46365","2023-001CU","55099","6864.101","94.327","494.413","477.519","0"
"GENERATED VIA SPACETRACK.ORG API","18 SPCS","55099","SPACEBEE-156","PAYLOAD","U","23001CU","2023-11-04 03:31:23","456928","15.26625109","0.001228","97.4579","7.4738","227.3171","132.7034","0","999","4640","0.0012474","0.00032789","0","4069520","0 SPACEBEE-156","1 55099U 23001CU  23308.14679927  .00032789  00000-0  12474-2 0  9994","2 55099  97.4579   7.4738 0012280 227.3171 132.7034 15.26625109 46407","2023-001CU","55099","6864.047","94.326","494.341","477.483","0"
"GENERATED VIA SPACETRACK.ORG API","18 SPCS","55099","SPACEBEE-156","PAYLOAD","U","23001CU","2023-11-04 09:48:56","61216","15.26641628","0.0012275","97.458","7.7356","226.5635","133.4583","0","999","4644","0.001225","0.00032212","0","4070271","0 SPACEBEE-156","1 55099U 23001CU  23308.40898219  .00032212  00000-0  12250-2 0  9993","2 55099  97.4580   7.7356 0012275 226.5635 133.4583 15.26641628 46443","2023-001CU","55099","6863.997","94.325","494.288","477.437","0"
"GENERATED VIA SPACETRACK.ORG API","18 SPCS","55099","SPACEBEE-156","PAYLOAD","U","23001CU","2023-11-04 16:06:28","386432","15.26660756","0.0012296","97.458","7.9974","225.7293","134.2937","0","999","4648","0.0012466","0.00032803","0","4070865","0 SPACEBEE-156","1 55099U 23001CU  23308.67116188  .00032803  00000-0  12466-2 0  9995","2 55099  97.4580   7.9974 0012296 225.7293 134.2937 15.26660756 46484","2023-001CU","55099","6863.940","94.324","494.245","477.365","0"
"GENERATED VIA SPACETRACK.ORG API","18 SPCS","55099","SPACEBEE-156","PAYLOAD","U","23001CU","2023-11-05 03:07:09","142752","15.26705715","0.0012301","97.4577","8.4551","224.2713","135.7543","0","999","4655","0.0017193","0.00045407","0","4071334","0 SPACEBEE-156","1 55099U 23001CU  23309.12996693  .00045407  00000-0  17193-2 0  9999","2 55099  97.4577   8.4551 0012301 224.2713 135.7543 15.26705715 46557","2023-001CU","55099","6863.805","94.321","494.113","477.227","0"
"GENERATED VIA SPACETRACK.ORG API","18 SPCS","55099","SPACEBEE-156","PAYLOAD","U","23001CU","2023-11-05 03:07:09","142752","15.26705715","0.0012301","97.4577","8.4551","224.2713","135.7543","0","999","4655","0.0017193","0.00045407","0","4072138","0 SPACEBEE-156","1 55099U 23001CU  23309.12996693  .00045407  00000-0  17193-2 0  9999","2 55099  97.4577   8.4551 0012301 224.2713 135.7543 15.26705715 46557","2023-001CU","55099","6863.805","94.321","494.113","477.227","0"
